sat15475
1 15475U 85003G   20046.81626475  .00000010  00000-0 -34149-5 0  9997
2 15475  82.6068 251.5212 0037098 338.5594  32.1778 12.55158199607520
